AQUA                    
1 27424U 02022A   26084.90410259  .00000971  00000+0  20336-3 0  9998
2 27424  98.4201  52.5677 0001013 117.3701 299.7848 14.62012611271104
CZ-4B R/B               
1 27432U 02024C   26084.58409903  .00000033  00000+0  39820-4 0  9995
2 27432  98.8806 137.9084 0049663 339.0391 188.1633 14.14550357231480
MIDORI II (ADEOS-II)    
1 27597U 02056A   26084.83472500  .00000301  00000+0  13608-3 0  9996
2 27597  98.7796  43.4267 0000900  25.1567 334.9658 14.29296689212604
H-2A R/B                
1 27601U 02056E   26084.64023838  .00000285  00000+0  11395-3 0  9999
2 27601  98.3230  44.4012 0071287 113.6346  58.6372 14.33770805216397
CZ-4B R/B               
1 28059U 03049C   26084.75021140  .00000347  00000+0  91086-4 0  9991
2 28059  98.6892  80.2870 0048093 181.3301 178.7774 14.55034076188939
CZ-2C R/B               
1 28222U 04012C   26084.14223247  .00056975  00000+0  54612-3 0  9990
2 28222  97.7188 150.9180 0013092 246.5426 113.4457 15.66375966206698
SL-16 R/B               
1 28353U 04021B   26084.72092965  .00000079  00000+0  66158-4 0  9993
2 28353  71.0004 198.8497 0004809 350.3139   9.7890 14.14593727125101
CZ-4B R/B               
1 28415U 04035C   26084.81005742  .00007721  00000+0  27040-3 0  9991
2 28415  97.3476 118.8605 0029974 271.2904  88.4902 15.29338078182371
CZ-2C R/B               
1 28480U 04046B   26084.68293006  .00000136  00000+0  65085-4 0  9997
2 28480  98.1976 358.6706 0140564 107.4306 254.2300 14.26997529110787
ARIANE 5 R/B            
1 28499U 04049H   26084.73353037  .00000759  00000+0  90343-4 0  9993
2 28499  98.2652 253.7939 0082989 299.5069  59.7887 14.85293504148176
CZ-2D R/B               
1 28738U 05024B   26084.48034932  .00042977  00000+0  50058-3 0  9991
2 28738  97.3590 100.2219 0002972 356.1869   3.9365 15.61567796142248
ALOS (DAICHI)           
1 28931U 06002A   26084.43264916  .00001327  00000+0  23028-3 0  9996
2 28931  98.1243  40.3121 0000779 100.0566 260.0728 14.69856125 75794
