CCSDS_OMM_VERS = 2.0
CREATION_DATE  = 
ORIGINATOR     = 

OBJECT_NAME    = AQUA
OBJECT_ID      = 2002-022A
CENTER_NAME    = EARTH
REF_FRAME      = TEME
TIME_SYSTEM    = UTC
MEAN_ELEMENT_THEORY = SGP/SGP4

EPOCH          = 2026-03-25T21:41:54.463776
MEAN_MOTION    = 14.62012611
ECCENTRICITY   = .0001013
INCLINATION    = 98.4201
RA_OF_ASC_NODE = 52.5677
ARG_OF_PERICENTER = 117.3701
MEAN_ANOMALY   = 299.7848

EPHEMERIS_TYPE = 0
CLASSIFICATION_TYPE = U
NORAD_CAT_ID   = 27424
ELEMENT_SET_NO = 999
REV_AT_EPOCH   = 27110
BSTAR          = .20336E-3
MEAN_MOTION_DOT = .971E-5
MEAN_MOTION_DDOT = 0

CCSDS_OMM_VERS = 2.0
CREATION_DATE  = 
ORIGINATOR     = 

OBJECT_NAME    = CZ-4B R/B
OBJECT_ID      = 2002-024C
CENTER_NAME    = EARTH
REF_FRAME      = TEME
TIME_SYSTEM    = UTC
MEAN_ELEMENT_THEORY = SGP/SGP4

EPOCH          = 2026-03-25T14:01:06.156192
MEAN_MOTION    = 14.14550357
ECCENTRICITY   = .0049663
INCLINATION    = 98.8806
RA_OF_ASC_NODE = 137.9084
ARG_OF_PERICENTER = 339.0391
MEAN_ANOMALY   = 188.1633

EPHEMERIS_TYPE = 0
CLASSIFICATION_TYPE = U
NORAD_CAT_ID   = 27432
ELEMENT_SET_NO = 999
REV_AT_EPOCH   = 23148
BSTAR          = .3982E-4
MEAN_MOTION_DOT = .33E-6
MEAN_MOTION_DDOT = 0

CCSDS_OMM_VERS = 2.0
CREATION_DATE  = 
ORIGINATOR     = 

OBJECT_NAME    = MIDORI II (ADEOS-II)
OBJECT_ID      = 2002-056A
CENTER_NAME    = EARTH
REF_FRAME      = TEME
TIME_SYSTEM    = UTC
MEAN_ELEMENT_THEORY = SGP/SGP4

EPOCH          = 2026-03-25T20:02:00.240000
MEAN_MOTION    = 14.29296689
ECCENTRICITY   = .00009
INCLINATION    = 98.7796
RA_OF_ASC_NODE = 43.4267
ARG_OF_PERICENTER = 25.1567
MEAN_ANOMALY   = 334.9658

EPHEMERIS_TYPE = 0
CLASSIFICATION_TYPE = U
NORAD_CAT_ID   = 27597
ELEMENT_SET_NO = 999
REV_AT_EPOCH   = 21260
BSTAR          = .13608E-3
MEAN_MOTION_DOT = .301E-5
MEAN_MOTION_DDOT = 0

CCSDS_OMM_VERS = 2.0
CREATION_DATE  = 
ORIGINATOR     = 

OBJECT_NAME    = H-2A R/B
OBJECT_ID      = 2002-056E
CENTER_NAME    = EARTH
REF_FRAME      = TEME
TIME_SYSTEM    = UTC
MEAN_ELEMENT_THEORY = SGP/SGP4

EPOCH          = 2026-03-25T15:21:56.596032
MEAN_MOTION    = 14.33770805
ECCENTRICITY   = .0071287
INCLINATION    = 98.3230
RA_OF_ASC_NODE = 44.4012
ARG_OF_PERICENTER = 113.6346
MEAN_ANOMALY   = 58.6372

EPHEMERIS_TYPE = 0
CLASSIFICATION_TYPE = U
NORAD_CAT_ID   = 27601
ELEMENT_SET_NO = 999
REV_AT_EPOCH   = 21639
BSTAR          = .11395E-3
MEAN_MOTION_DOT = .285E-5
MEAN_MOTION_DDOT = 0

CCSDS_OMM_VERS = 2.0
CREATION_DATE  = 
ORIGINATOR     = 

OBJECT_NAME    = CZ-4B R/B
OBJECT_ID      = 2003-049C
CENTER_NAME    = EARTH
REF_FRAME      = TEME
TIME_SYSTEM    = UTC
MEAN_ELEMENT_THEORY = SGP/SGP4

EPOCH          = 2026-03-25T18:00:18.264960
MEAN_MOTION    = 14.55034076
ECCENTRICITY   = .0048093
INCLINATION    = 98.6892
RA_OF_ASC_NODE = 80.2870
ARG_OF_PERICENTER = 181.3301
MEAN_ANOMALY   = 178.7774

EPHEMERIS_TYPE = 0
CLASSIFICATION_TYPE = U
NORAD_CAT_ID   = 28059
ELEMENT_SET_NO = 999
REV_AT_EPOCH   = 18893
BSTAR          = .91086E-4
MEAN_MOTION_DOT = .347E-5
MEAN_MOTION_DDOT = 0

CCSDS_OMM_VERS = 2.0
CREATION_DATE  = 
ORIGINATOR     = 

OBJECT_NAME    = CZ-2C R/B
OBJECT_ID      = 2004-012C
CENTER_NAME    = EARTH
REF_FRAME      = TEME
TIME_SYSTEM    = UTC
MEAN_ELEMENT_THEORY = SGP/SGP4

EPOCH          = 2026-03-25T03:24:48.885408
MEAN_MOTION    = 15.66375966
ECCENTRICITY   = .00130925
INCLINATION    = 97.7188
RA_OF_ASC_NODE = 150.9180
ARG_OF_PERICENTER = 246.5426
MEAN_ANOMALY   = 113.4457

EPHEMERIS_TYPE = 0
CLASSIFICATION_TYPE = U
NORAD_CAT_ID   = 28222
ELEMENT_SET_NO = 999
REV_AT_EPOCH   = 20669
BSTAR          = .54612389E-3
MEAN_MOTION_DOT = .56975E-3
MEAN_MOTION_DDOT = 0

CCSDS_OMM_VERS = 2.0
CREATION_DATE  = 
ORIGINATOR     = 

OBJECT_NAME    = SL-16 R/B
OBJECT_ID      = 2004-021B
CENTER_NAME    = EARTH
REF_FRAME      = TEME
TIME_SYSTEM    = UTC
MEAN_ELEMENT_THEORY = SGP/SGP4

EPOCH          = 2026-03-25T17:18:08.321760
MEAN_MOTION    = 14.14593727
ECCENTRICITY   = .0004809
INCLINATION    = 71.0004
RA_OF_ASC_NODE = 198.8497
ARG_OF_PERICENTER = 350.3139
MEAN_ANOMALY   = 9.7890

EPHEMERIS_TYPE = 0
CLASSIFICATION_TYPE = U
NORAD_CAT_ID   = 28353
ELEMENT_SET_NO = 999
REV_AT_EPOCH   = 12510
BSTAR          = .66158E-4
MEAN_MOTION_DOT = .79E-6
MEAN_MOTION_DDOT = 0

CCSDS_OMM_VERS = 2.0
CREATION_DATE  = 
ORIGINATOR     = 

OBJECT_NAME    = CZ-4B R/B
OBJECT_ID      = 2004-035C
CENTER_NAME    = EARTH
REF_FRAME      = TEME
TIME_SYSTEM    = UTC
MEAN_ELEMENT_THEORY = SGP/SGP4

EPOCH          = 2026-03-25T19:26:28.961088
MEAN_MOTION    = 15.29338078
ECCENTRICITY   = .0029974
INCLINATION    = 97.3476
RA_OF_ASC_NODE = 118.8605
ARG_OF_PERICENTER = 271.2904
MEAN_ANOMALY   = 88.4902

EPHEMERIS_TYPE = 0
CLASSIFICATION_TYPE = U
NORAD_CAT_ID   = 28415
ELEMENT_SET_NO = 999
REV_AT_EPOCH   = 18237
BSTAR          = .2704E-3
MEAN_MOTION_DOT = .7721E-4
MEAN_MOTION_DDOT = 0

CCSDS_OMM_VERS = 2.0
CREATION_DATE  = 
ORIGINATOR     = 

OBJECT_NAME    = CZ-2C R/B
OBJECT_ID      = 2004-046B
CENTER_NAME    = EARTH
REF_FRAME      = TEME
TIME_SYSTEM    = UTC
MEAN_ELEMENT_THEORY = SGP/SGP4

EPOCH          = 2026-03-25T16:23:25.157184
MEAN_MOTION    = 14.26997529
ECCENTRICITY   = .0140564
INCLINATION    = 98.1976
RA_OF_ASC_NODE = 358.6706
ARG_OF_PERICENTER = 107.4306
MEAN_ANOMALY   = 254.2300

EPHEMERIS_TYPE = 0
CLASSIFICATION_TYPE = U
NORAD_CAT_ID   = 28480
ELEMENT_SET_NO = 999
REV_AT_EPOCH   = 11078
BSTAR          = .65085E-4
MEAN_MOTION_DOT = .136E-5
MEAN_MOTION_DDOT = 0

CCSDS_OMM_VERS = 2.0
CREATION_DATE  = 
ORIGINATOR     = 

OBJECT_NAME    = ARIANE 5 R/B
OBJECT_ID      = 2004-049H
CENTER_NAME    = EARTH
REF_FRAME      = TEME
TIME_SYSTEM    = UTC
MEAN_ELEMENT_THEORY = SGP/SGP4

EPOCH          = 2026-03-25T17:36:17.023968
MEAN_MOTION    = 14.85293504
ECCENTRICITY   = .0082989
INCLINATION    = 98.2652
RA_OF_ASC_NODE = 253.7939
ARG_OF_PERICENTER = 299.5069
MEAN_ANOMALY   = 59.7887

EPHEMERIS_TYPE = 0
CLASSIFICATION_TYPE = U
NORAD_CAT_ID   = 28499
ELEMENT_SET_NO = 999
REV_AT_EPOCH   = 14817
BSTAR          = .90343E-4
MEAN_MOTION_DOT = .759E-5
MEAN_MOTION_DDOT = 0

CCSDS_OMM_VERS = 2.0
CREATION_DATE  = 
ORIGINATOR     = 

OBJECT_NAME    = CZ-2D R/B
OBJECT_ID      = 2005-024B
CENTER_NAME    = EARTH
REF_FRAME      = TEME
TIME_SYSTEM    = UTC
MEAN_ELEMENT_THEORY = SGP/SGP4

EPOCH          = 2026-03-25T11:31:42.181248
MEAN_MOTION    = 15.61567796
ECCENTRICITY   = .00029724
INCLINATION    = 97.3590
RA_OF_ASC_NODE = 100.2219
ARG_OF_PERICENTER = 356.1869
MEAN_ANOMALY   = 3.9365

EPHEMERIS_TYPE = 0
CLASSIFICATION_TYPE = U
NORAD_CAT_ID   = 28738
ELEMENT_SET_NO = 999
REV_AT_EPOCH   = 14224
BSTAR          = .50057763E-3
MEAN_MOTION_DOT = .42977E-3
MEAN_MOTION_DDOT = 0

CCSDS_OMM_VERS = 2.0
CREATION_DATE  = 
ORIGINATOR     = 

OBJECT_NAME    = ALOS (DAICHI)
OBJECT_ID      = 2006-002A
CENTER_NAME    = EARTH
REF_FRAME      = TEME
TIME_SYSTEM    = UTC
MEAN_ELEMENT_THEORY = SGP/SGP4

EPOCH          = 2026-03-25T10:23:00.887424
MEAN_MOTION    = 14.69856125
ECCENTRICITY   = .00007794
INCLINATION    = 98.1243
RA_OF_ASC_NODE = 40.3121
ARG_OF_PERICENTER = 100.0566
MEAN_ANOMALY   = 260.0728

EPHEMERIS_TYPE = 0
CLASSIFICATION_TYPE = U
NORAD_CAT_ID   = 28931
ELEMENT_SET_NO = 999
REV_AT_EPOCH   = 7579
BSTAR          = .2302797E-3
MEAN_MOTION_DOT = .1327E-4
MEAN_MOTION_DDOT = 0

